BEIDOU-3 M20            
1 44865U 19090B   26087.52035325 -.00000003  00000+0  00000+0 0  9996
2 44865  56.4922  65.4894 0017913 305.5253 235.0059  1.86231097 42712
BEIDOU-3 G2             
1 45344U 20017A   26087.91711833 -.00000157  00000+0  00000+0 0  9998
2 45344   2.7041  46.0121 0002556 322.4928 228.0139  1.00271976 22459
COSMOS 2545 [GLONASS-M] 
1 45358U 20018A   26085.16554035 -.00000028  00000+0  00000+0 0  9995
2 45358  64.4042 315.3386 0007474 246.9709 113.0018  2.13102438 46890
BEIDOU-3 G3             
1 45807U 20040A   26087.92318502 -.00000371  00000+0  00000+0 0  9993
2 45807   2.2506  67.1894 0004132 321.0263 241.0214  1.00272788 21263
NAVSTAR 79 (USA 304)    
1 45854U 20041A   26087.70647736 -.00000082  00000+0  00000+0 0  9995
2 45854  56.6214  32.0661 0061658 205.2530 331.0390  2.00560091 42427
GALAXY 30 (G-30)        
1 46114U 20056C   26087.66257388  .00000000  00000+0  00000+0 0  9995
2 46114   0.0233 174.1278 0002167 207.0001 278.4714  1.00270179 20486
COSMOS 2547 [GLONASS-K] 
1 46805U 20075A   26086.76204793 -.00000031  00000+0  00000+0 0  9990
2 46805  64.5985 195.1905 0007370 232.5213 127.4084  2.13100219 42176
NAVSTAR 80 (USA 309)    
1 46826U 20078A   26087.74759426 -.00000040  00000+0  00000+0 0  9993
2 46826  53.9956 214.0394 0069585 204.9432 334.9477  2.00565106 39896
NAVSTAR 81 (USA 319)    
1 48859U 21054A   26085.92660022 -.00000086  00000+0  00000+0 0  9997
2 48859  55.2106 335.7679 0023833 231.2619 258.6260  2.00573998 35109
QZS-1R (MICHIBIKI-1R)   
1 49336U 21096A   26087.85506473 -.00000231  00000+0  00000+0 0  9999
2 49336  37.2973  80.7659 0749326 270.2513 278.3326  1.00282480 16209
GSAT0223 (GALILEO 27)   
1 49809U 21116A   26085.57513177 -.00000095  00000+0  00000+0 0  9991
2 49809  57.1864 343.9082 0001802 284.7150 254.2688  1.70475251 26779
GSAT0224 (GALILEO 28)   
1 49810U 21116B   26083.04634432 -.00000085  00000+0  00000+0 0  9990
2 49810  57.1880 343.9758 0001287 309.9434 229.6785  1.70475197 26752
COSMOS 2557 [GLONASS-K] 
1 52984U 22075A   26087.39625536 -.00000031  00000+0  00000+0 0  9999
2 52984  64.3446 317.3335 0010963 283.6190  76.3135  2.13101758 28991
COSMOS 2559 [GLONASS-K] 
1 54031U 22130A   26086.27716517 -.00000031  00000+0  00000+0 0  9992
2 54031  64.3180 317.4582 0010826 178.2697 181.7868  2.13101261 26941
COSMOS 2564 [GLONASS-M] 
1 54377U 22161A   26087.52838218 -.00000035  00000+0  00000+0 0  9995
2 54377  64.7402 195.3871 0010142 214.6858 145.2434  2.13101826 25911
NAVSTAR 82 (USA 343)    
1 55268U 23009A   26087.18378093  .00000000  00000+0  00000+0 0  9990
2 55268  55.1104 151.7031 0005380 326.6502  28.0595  2.00547447 23616
BEIDOU-3 G4             
1 56564U 23066A   26072.17398353 -.00000111  00000+0  00000+0 0  9991
2 56564   0.6336 312.1088 0002647 153.4351 287.9442  1.00272296 10433
